{
  "type": "FeatureCollection",
  "name": "Jodhpur_Municipal_Wards",
  "crs": { "type": "name", "properties": { "name": "urn:ogc:def:crs:OGC:1.3:CRS84" } },
  "features": [
    {
      "type": "Feature",
      "properties": {
        "ward_id": "JOD-001",
        "ward_name": "Sardarpura",
        "zone_name": "Jodhpur North Zone",
        "pin_codes": ["342003"],
        "landmarks": ["Sardar Market", "Jaljog Circle", "Olympic Cinema"],
        "area_sq_km": 3.4,
        "population": 48200,
        "population_density": 14176,
        "lst_celsius": 43.8,
        "ndvi": 0.112,
        "ndwi": -0.18,
        "building_density_pct": 78,
        "lulc_class": "Dense Commercial & Old Residential Core",
        "children_0_6_pct": 9.2,
        "female_pct": 47.9,
        "sc_population_pct": 11.2,
        "st_population_pct": 2.1,
        "literacy_pct": 78.4,
        "elderly_60_plus_pct": 12.8,
        "low_income_slum_pct": 32,
        "outdoor_workers_count": 3600,
        "social_vulnerability_score": 6.2,
        "uhc_name": "UPHC Sardarpura Dispensary",
        "uhc_distance_km": 0.8,
        "current_temp_celsius": 43.5,
        "current_humidity_pct": 26
      },
      "geometry": {
        "type": "Polygon",
        "coordinates": [
          [
            [73.0040, 26.2840],
            [73.0180, 26.2860],
            [73.0220, 26.2750],
            [73.0130, 26.2690],
            [73.0030, 26.2720],
            [73.0040, 26.2840]
          ]
        ]
      }
    },
    {
      "type": "Feature",
      "properties": {
        "ward_id": "JOD-002",
        "ward_name": "Soorsagar",
        "zone_name": "Jodhpur North Zone",
        "pin_codes": ["342024"],
        "landmarks": ["Bada Talab Soorsagar", "Stone Quarry Ridge", "Balsamand Lake Road"],
        "area_sq_km": 5.1,
        "population": 42100,
        "population_density": 8254,
        "lst_celsius": 44.5,
        "ndvi": 0.088,
        "ndwi": -0.22,
        "building_density_pct": 64,
        "lulc_class": "Rocky Outcrops & Dense Low-Income Settlements",
        "children_0_6_pct": 11.5,
        "female_pct": 48.1,
        "sc_population_pct": 18.5,
        "st_population_pct": 4.8,
        "literacy_pct": 68.2,
        "elderly_60_plus_pct": 9.4,
        "low_income_slum_pct": 46,
        "outdoor_workers_count": 4850,
        "social_vulnerability_score": 7.4,
        "uhc_name": "UPHC Soorsagar Primary Health Centre",
        "uhc_distance_km": 1.6,
        "current_temp_celsius": 44.2,
        "current_humidity_pct": 24
      },
      "geometry": {
        "type": "Polygon",
        "coordinates": [
          [
            [72.9820, 26.3260],
            [73.0020, 26.3240],
            [73.0060, 26.3070],
            [72.9880, 26.3020],
            [72.9790, 26.3140],
            [72.9820, 26.3260]
          ]
        ]
      }
    },
    {
      "type": "Feature",
      "properties": {
        "ward_id": "JOD-003",
        "ward_name": "Ratanada",
        "zone_name": "Jodhpur South Zone",
        "pin_codes": ["342011"],
        "landmarks": ["Air Force Flying Club", "Circuit House", "Panchbatti Circle"],
        "area_sq_km": 4.8,
        "population": 39500,
        "population_density": 8229,
        "lst_celsius": 41.2,
        "ndvi": 0.185,
        "ndwi": -0.12,
        "building_density_pct": 55,
        "lulc_class": "Institutional & Planned Residential Greenery",
        "children_0_6_pct": 7.8,
        "female_pct": 49.0,
        "sc_population_pct": 7.2,
        "st_population_pct": 1.5,
        "literacy_pct": 84.6,
        "elderly_60_plus_pct": 14.1,
        "low_income_slum_pct": 18,
        "outdoor_workers_count": 1900,
        "social_vulnerability_score": 4.2,
        "uhc_name": "UPHC Ratanada Cantonment Dispensary",
        "uhc_distance_km": 1.1,
        "current_temp_celsius": 41.0,
        "current_humidity_pct": 28
      },
      "geometry": {
        "type": "Polygon",
        "coordinates": [
          [
            [73.0280, 26.2750],
            [73.0480, 26.2720],
            [73.0510, 26.2550],
            [73.0330, 26.2520],
            [73.0240, 26.2640],
            [73.0280, 26.2750]
          ]
        ]
      }
    },
    {
      "type": "Feature",
      "properties": {
        "ward_id": "JOD-004",
        "ward_name": "Mandore",
        "zone_name": "Jodhpur North Zone",
        "pin_codes": ["342304"],
        "landmarks": ["Mandore Gardens", "Ancient Cenotaphs", "Nagaur Highway Junction"],
        "area_sq_km": 6.8,
        "population": 36200,
        "population_density": 5323,
        "lst_celsius": 42.1,
        "ndvi": 0.204,
        "ndwi": -0.11,
        "building_density_pct": 48,
        "lulc_class": "Semi-Urban Heritage Park & Open Scrub",
        "children_0_6_pct": 9.8,
        "female_pct": 48.2,
        "sc_population_pct": 14.1,
        "st_population_pct": 3.2,
        "literacy_pct": 72.4,
        "elderly_60_plus_pct": 10.5,
        "low_income_slum_pct": 26,
        "outdoor_workers_count": 2700,
        "social_vulnerability_score": 5.1,
        "uhc_name": "UPHC Mandore Community Health Centre",
        "uhc_distance_km": 1.9,
        "current_temp_celsius": 41.8,
        "current_humidity_pct": 27
      },
      "geometry": {
        "type": "Polygon",
        "coordinates": [
          [
            [73.0250, 26.3720],
            [73.0520, 26.3680],
            [73.0550, 26.3450],
            [73.0310, 26.3420],
            [73.0210, 26.3580],
            [73.0250, 26.3720]
          ]
        ]
      }
    },
    {
      "type": "Feature",
      "properties": {
        "ward_id": "JOD-005",
        "ward_name": "Mehrangarh Walled City",
        "zone_name": "Jodhpur North Zone",
        "pin_codes": ["342001"],
        "landmarks": ["Mehrangarh Fort", "Jaswant Thada", "Clock Tower", "Brahmpuri Blue Houses"],
        "area_sq_km": 2.9,
        "population": 54100,
        "population_density": 18655,
        "lst_celsius": 44.9,
        "ndvi": 0.065,
        "ndwi": -0.24,
        "building_density_pct": 92,
        "lulc_class": "Ultra-Dense Blue-Painted Stone Masonry Urban Core",
        "children_0_6_pct": 10.8,
        "female_pct": 48.4,
        "sc_population_pct": 9.8,
        "st_population_pct": 1.1,
        "literacy_pct": 76.5,
        "elderly_60_plus_pct": 15.2,
        "low_income_slum_pct": 39,
        "outdoor_workers_count": 4900,
        "social_vulnerability_score": 7.8,
        "uhc_name": "City Dispensary Clock Tower Old Jodhpur",
        "uhc_distance_km": 0.5,
        "current_temp_celsius": 44.6,
        "current_humidity_pct": 25
      },
      "geometry": {
        "type": "Polygon",
        "coordinates": [
          [
            [73.0120, 26.3050],
            [73.0270, 26.3040],
            [73.0290, 26.2910],
            [73.0160, 26.2880],
            [73.0090, 26.2970],
            [73.0120, 26.3050]
          ]
        ]
      }
    },
    {
      "type": "Feature",
      "properties": {
        "ward_id": "JOD-006",
        "ward_name": "Shastri Nagar",
        "zone_name": "Jodhpur South Zone",
        "pin_codes": ["342003"],
        "landmarks": ["MDM Hospital", "Nehru Park", "Geeta Bhawan"],
        "area_sq_km": 3.7,
        "population": 46500,
        "population_density": 12567,
        "lst_celsius": 42.4,
        "ndvi": 0.162,
        "ndwi": -0.14,
        "building_density_pct": 71,
        "lulc_class": "Planned Medium-Density Residential & Medical Hub",
        "children_0_6_pct": 8.4,
        "female_pct": 48.8,
        "sc_population_pct": 8.6,
        "st_population_pct": 1.8,
        "literacy_pct": 82.1,
        "elderly_60_plus_pct": 13.5,
        "low_income_slum_pct": 21,
        "outdoor_workers_count": 2200,
        "social_vulnerability_score": 4.9,
        "uhc_name": "UPHC Shastri Nagar Sector C",
        "uhc_distance_km": 0.7,
        "current_temp_celsius": 42.2,
        "current_humidity_pct": 27
      },
      "geometry": {
        "type": "Polygon",
        "coordinates": [
          [
            [72.9990, 26.2680],
            [73.0170, 26.2660],
            [73.0200, 26.2510],
            [73.0020, 26.2490],
            [72.9950, 26.2590],
            [72.9990, 26.2680]
          ]
        ]
      }
    },
    {
      "type": "Feature",
      "properties": {
        "ward_id": "JOD-007",
        "ward_name": "Basni Industrial Area",
        "zone_name": "Jodhpur South Zone",
        "pin_codes": ["342005"],
        "landmarks": ["AIIMS Jodhpur", "Basni Phase II Industrial Estate", "Marudhar Hospital"],
        "area_sq_km": 6.2,
        "population": 52300,
        "population_density": 8435,
        "lst_celsius": 45.3,
        "ndvi": 0.072,
        "ndwi": -0.25,
        "building_density_pct": 84,
        "lulc_class": "Heavy Industrial Metallic Roofs & Stone Processing Mills",
        "children_0_6_pct": 12.1,
        "female_pct": 46.5,
        "sc_population_pct": 21.4,
        "st_population_pct": 5.2,
        "literacy_pct": 65.8,
        "elderly_60_plus_pct": 7.9,
        "low_income_slum_pct": 52,
        "outdoor_workers_count": 6400,
        "social_vulnerability_score": 8.5,
        "uhc_name": "ESI Hospital & UPHC Basni Industrial Zone",
        "uhc_distance_km": 1.4,
        "current_temp_celsius": 45.0,
        "current_humidity_pct": 23
      },
      "geometry": {
        "type": "Polygon",
        "coordinates": [
          [
            [72.9890, 26.2420],
            [73.0140, 26.2390],
            [73.0180, 26.2150],
            [72.9930, 26.2180],
            [72.9840, 26.2300],
            [72.9890, 26.2420]
          ]
        ]
      }
    },
    {
      "type": "Feature",
      "properties": {
        "ward_id": "JOD-008",
        "ward_name": "Paota",
        "zone_name": "Jodhpur North Zone",
        "pin_codes": ["342006"],
        "landmarks": ["Paota Circle", "High Court Road", "Central Bus Stand"],
        "area_sq_km": 4.1,
        "population": 45800,
        "population_density": 11170,
        "lst_celsius": 43.1,
        "ndvi": 0.138,
        "ndwi": -0.16,
        "building_density_pct": 75,
        "lulc_class": "Dense Transit Corridor & Commercial Establishments",
        "children_0_6_pct": 9.4,
        "female_pct": 48.0,
        "sc_population_pct": 10.5,
        "st_population_pct": 1.9,
        "literacy_pct": 79.5,
        "elderly_60_plus_pct": 12.1,
        "low_income_slum_pct": 29,
        "outdoor_workers_count": 3800,
        "social_vulnerability_score": 5.8,
        "uhc_name": "UPHC Paota Satellite Hospital",
        "uhc_distance_km": 0.6,
        "current_temp_celsius": 42.8,
        "current_humidity_pct": 26
      },
      "geometry": {
        "type": "Polygon",
        "coordinates": [
          [
            [73.0260, 26.3120],
            [73.0480, 26.3090],
            [73.0510, 26.2940],
            [73.0310, 26.2920],
            [73.0220, 26.3020],
            [73.0260, 26.3120]
          ]
        ]
      }
    },
    {
      "type": "Feature",
      "properties": {
        "ward_id": "JOD-009",
        "ward_name": "Mahamandir",
        "zone_name": "Jodhpur North Zone",
        "pin_codes": ["342006"],
        "landmarks": ["Mahamandir Temple", "Third Pole", "Railway Training School"],
        "area_sq_km": 3.8,
        "population": 43900,
        "population_density": 11552,
        "lst_celsius": 43.6,
        "ndvi": 0.125,
        "ndwi": -0.17,
        "building_density_pct": 77,
        "lulc_class": "Historic Heritage Precinct & Narrow High-Density Alleys",
        "children_0_6_pct": 10.1,
        "female_pct": 48.5,
        "sc_population_pct": 12.8,
        "st_population_pct": 2.4,
        "literacy_pct": 75.3,
        "elderly_60_plus_pct": 13.9,
        "low_income_slum_pct": 35,
        "outdoor_workers_count": 3400,
        "social_vulnerability_score": 6.4,
        "uhc_name": "UPHC Mahamandir Dispensary",
        "uhc_distance_km": 0.9,
        "current_temp_celsius": 43.4,
        "current_humidity_pct": 25
      },
      "geometry": {
        "type": "Polygon",
        "coordinates": [
          [
            [73.0320, 26.3260],
            [73.0530, 26.3220],
            [73.0560, 26.3060],
            [73.0360, 26.3050],
            [73.0280, 26.3160],
            [73.0320, 26.3260]
          ]
        ]
      }
    },
    {
      "type": "Feature",
      "properties": {
        "ward_id": "JOD-010",
        "ward_name": "Kudi Bhagtasni",
        "zone_name": "Jodhpur South Zone",
        "pin_codes": ["342013"],
        "landmarks": ["Housing Board Scheme", "Sector 4 Main Market", "DPS Circle"],
        "area_sq_km": 7.4,
        "population": 51200,
        "population_density": 6918,
        "lst_celsius": 44.1,
        "ndvi": 0.098,
        "ndwi": -0.21,
        "building_density_pct": 62,
        "lulc_class": "Peripheral Concrete Housing Development & Open Arid Land",
        "children_0_6_pct": 10.9,
        "female_pct": 47.8,
        "sc_population_pct": 16.2,
        "st_population_pct": 3.9,
        "literacy_pct": 74.8,
        "elderly_60_plus_pct": 8.7,
        "low_income_slum_pct": 41,
        "outdoor_workers_count": 4200,
        "social_vulnerability_score": 7.1,
        "uhc_name": "UPHC Kudi Bhagtasni Sector 2 Dispensary",
        "uhc_distance_km": 1.8,
        "current_temp_celsius": 43.8,
        "current_humidity_pct": 24
      },
      "geometry": {
        "type": "Polygon",
        "coordinates": [
          [
            [73.0080, 26.2110],
            [73.0360, 26.2080],
            [73.0410, 26.1820],
            [73.0130, 26.1850],
            [73.0040, 26.1980],
            [73.0080, 26.2110]
          ]
        ]
      }
    },
    {
      "type": "Feature",
      "properties": {
        "ward_id": "JOD-011",
        "ward_name": "Chopasni Housing Board",
        "zone_name": "Jodhpur North Zone",
        "pin_codes": ["342008"],
        "landmarks": ["Chopasni School", "12th Sector Market", "Jaisalmer Bypass"],
        "area_sq_km": 5.8,
        "population": 47300,
        "population_density": 8155,
        "lst_celsius": 43.2,
        "ndvi": 0.128,
        "ndwi": -0.17,
        "building_density_pct": 66,
        "lulc_class": "Western Suburban Housing Blocks & Arid Scrub Edge",
        "children_0_6_pct": 9.7,
        "female_pct": 48.3,
        "sc_population_pct": 12.1,
        "st_population_pct": 2.8,
        "literacy_pct": 79.1,
        "elderly_60_plus_pct": 11.2,
        "low_income_slum_pct": 28,
        "outdoor_workers_count": 3100,
        "social_vulnerability_score": 5.7,
        "uhc_name": "UPHC Chopasni Sector 17 Health Centre",
        "uhc_distance_km": 1.3,
        "current_temp_celsius": 43.0,
        "current_humidity_pct": 25
      },
      "geometry": {
        "type": "Polygon",
        "coordinates": [
          [
            [72.9520, 26.2890],
            [72.9780, 26.2860],
            [72.9820, 26.2620],
            [72.9560, 26.2640],
            [72.9480, 26.2760],
            [72.9520, 26.2890]
          ]
        ]
      }
    },
    {
      "type": "Feature",
      "properties": {
        "ward_id": "JOD-012",
        "ward_name": "Pratap Nagar",
        "zone_name": "Jodhpur North Zone",
        "pin_codes": ["342003"],
        "landmarks": ["Akhaliya Circle", "Pratap Nagar Police Station", "Blind School Ground"],
        "area_sq_km": 3.9,
        "population": 49100,
        "population_density": 12589,
        "lst_celsius": 43.9,
        "ndvi": 0.105,
        "ndwi": -0.19,
        "building_density_pct": 79,
        "lulc_class": "Dense Mixed Residential & Commercial Axis",
        "children_0_6_pct": 10.4,
        "female_pct": 48.1,
        "sc_population_pct": 13.6,
        "st_population_pct": 3.1,
        "literacy_pct": 76.2,
        "elderly_60_plus_pct": 11.8,
        "low_income_slum_pct": 36,
        "outdoor_workers_count": 3900,
        "social_vulnerability_score": 6.6,
        "uhc_name": "UPHC Pratap Nagar Dispensary",
        "uhc_distance_km": 0.7,
        "current_temp_celsius": 43.7,
        "current_humidity_pct": 25
      },
      "geometry": {
        "type": "Polygon",
        "coordinates": [
          [
            [72.9810, 26.2980],
            [73.0030, 26.2950],
            [73.0060, 26.2810],
            [72.9840, 26.2820],
            [72.9770, 26.2900],
            [72.9810, 26.2980]
          ]
        ]
      }
    }
  ]
}
